{
  "type": "FeatureCollection",
  "features": [
    {
      "type": "Feature",
      "properties": {
        "norad_id": 66885,
        "name": "STARLINK-35954",
        "group": "last-30-days",
        "lat": 36.46571754789387,
        "lon": 56.389644741880545,
        "alt_km": 348.85614070610063,
        "timestamp": "2025-12-22T22:44:19.652097+00:00",
        "meta_object_name": "STARLINK-35954",
        "meta_object_id": "2025-283H",
        "meta_epoch": "2025-12-22T20:00:01.999008",
        "meta_mean_motion": 15.72148372,
        "meta_eccentricity": 0.000126,
        "meta_inclination": 53.1588,
        "meta_ra_of_asc_node": 23.3052,
        "meta_arg_of_pericenter": 73.7245,
        "meta_mean_anomaly": 48.3099,
        "meta_ephemeris_type": 0,
        "meta_classification_type": "U",
        "meta_norad_cat_id": 66885,
        "meta_element_set_no": 999,
        "meta_rev_at_epoch": 405,
        "meta_bstar": -0.016476,
        "meta_mean_motion_dot": -0.01957762,
        "meta_mean_motion_ddot": 0,
        "tle_line1": "1 66885U 25283H   25356.83335647 -.01957762  00000+0 -16476-1 0  9996",
        "tle_line2": "2 66885  53.1588  23.3052 0001260  73.7245  48.3099 15.72148372  4059"
      },
      "geometry": {
        "type": "Point",
        "coordinates": [
          56.389644741880545,
          36.46571754789387
        ]
      }
    },
    {
      "type": "Feature",
      "properties": {
        "norad_id": 66886,
        "name": "STARLINK-35900",
        "group": "last-30-days",
        "lat": 38.97776568105054,
        "lon": 60.08103962236195,
        "alt_km": 348.5133239990628,
        "timestamp": "2025-12-22T22:44:19.652108+00:00",
        "meta_object_name": "STARLINK-35900",
        "meta_object_id": "2025-283J",
        "meta_epoch": "2025-12-22T20:00:01.999008",
        "meta_mean_motion": 15.72265515,
        "meta_eccentricity": 0.0001217,
        "meta_inclination": 53.1588,
        "meta_ra_of_asc_node": 23.2968,
        "meta_arg_of_pericenter": 102.877,
        "meta_mean_anomaly": 22.9747,
        "meta_ephemeris_type": 0,
        "meta_classification_type": "U",
        "meta_norad_cat_id": 66886,
        "meta_element_set_no": 999,
        "meta_rev_at_epoch": 405,
        "meta_bstar": -0.018077,
        "meta_mean_motion_dot": -0.02133281,
        "meta_mean_motion_ddot": 0,
        "tle_line1": "1 66886U 25283J   25356.83335647 -.02133281  00000+0 -18077-1 0  9999",
        "tle_line2": "2 66886  53.1588  23.2968 0001217 102.8770  22.9747 15.72265515  4051"
      },
      "geometry": {
        "type": "Point",
        "coordinates": [
          60.08103962236195,
          38.97776568105054
        ]
      }
    },
    {
      "type": "Feature",
      "properties": {
        "norad_id": 66887,
        "name": "STARLINK-35925",
        "group": "last-30-days",
        "lat": 40.17211188402363,
        "lon": 61.99862081907719,
        "alt_km": 348.2158189444308,
        "timestamp": "2025-12-22T22:44:19.652118+00:00",
        "meta_object_name": "STARLINK-35925",
        "meta_object_id": "2025-283K",
        "meta_epoch": "2025-12-22T20:00:01.999008",
        "meta_mean_motion": 15.72148704,
        "meta_eccentricity": 0.000125,
        "meta_inclination": 53.1587,
        "meta_ra_of_asc_node": 23.293,
        "meta_arg_of_pericenter": 68.935,
        "meta_mean_anomaly": 58.8477,
        "meta_ephemeris_type": 0,
        "meta_classification_type": "U",
        "meta_norad_cat_id": 66887,
        "meta_element_set_no": 999,
        "meta_rev_at_epoch": 405,
        "meta_bstar": -0.016467,
        "meta_mean_motion_dot": -0.01956816,
        "meta_mean_motion_ddot": 0,
        "tle_line1": "1 66887U 25283K   25356.83335647 -.01956816  00000+0 -16467-1 0  9997",
        "tle_line2": "2 66887  53.1587  23.2930 0001250  68.9350  58.8477 15.72148704  4051"
      },
      "geometry": {
        "type": "Point",
        "coordinates": [
          61.99862081907719,
          40.17211188402363
        ]
      }
    },
    {
      "type": "Feature",
      "properties": {
        "norad_id": 66888,
        "name": "STARLINK-35919",
        "group": "last-30-days",
        "lat": 41.34501003228751,
        "lon": 64.00291947818994,
        "alt_km": 347.9941064096147,
        "timestamp": "2025-12-22T22:44:19.652128+00:00",
        "meta_object_name": "STARLINK-35919",
        "meta_object_id": "2025-283L",
        "meta_epoch": "2025-12-22T20:00:01.999008",
        "meta_mean_motion": 15.721396,
        "meta_eccentricity": 0.0001352,
        "meta_inclination": 53.159,
        "meta_ra_of_asc_node": 23.2886,
        "meta_arg_of_pericenter": 73.0613,
        "meta_mean_anomaly": 56.6437,
        "meta_ephemeris_type": 0,
        "meta_classification_type": "U",
        "meta_norad_cat_id": 66888,
        "meta_element_set_no": 999,
        "meta_rev_at_epoch": 405,
        "meta_bstar": -0.016374,
        "meta_mean_motion_dot": -0.01946425,
        "meta_mean_motion_ddot": 0,
        "tle_line1": "1 66888U 25283L   25356.83335647 -.01946425  00000+0 -16374-1 0  9990",
        "tle_line2": "2 66888  53.1590  23.2886 0001352  73.0613  56.6437 15.72139600  4055"
      },
      "geometry": {
        "type": "Point",
        "coordinates": [
          64.00291947818994,
          41.34501003228751
        ]
      }
    },
    {
      "type": "Feature",
      "properties": {
        "norad_id": 66889,
        "name": "STARLINK-35852",
        "group": "last-30-days",
        "lat": 42.47925624733382,
        "lon": 66.07572552728423,
        "alt_km": 347.78262925452236,
        "timestamp": "2025-12-22T22:44:19.652138+00:00",
        "meta_object_name": "STARLINK-35852",
        "meta_object_id": "2025-283M",
        "meta_epoch": "2025-12-22T20:00:01.999008",
        "meta_mean_motion": 15.72147537,
        "meta_eccentricity": 0.0001398,
        "meta_inclination": 53.1589,
        "meta_ra_of_asc_node": 23.2841,
        "meta_arg_of_pericenter": 76.402,
        "meta_mean_anomaly": 55.2153,
        "meta_ephemeris_type": 0,
        "meta_classification_type": "U",
        "meta_norad_cat_id": 66889,
        "meta_element_set_no": 999,
        "meta_rev_at_epoch": 405,
        "meta_bstar": -0.016459,
        "meta_mean_motion_dot": -0.01956041,
        "meta_mean_motion_ddot": 0,
        "tle_line1": "1 66889U 25283M   25356.83335647 -.01956041  00000+0 -16459-1 0  9990",
        "tle_line2": "2 66889  53.1589  23.2841 0001398  76.4020  55.2153 15.72147537  4052"
      },
      "geometry": {
        "type": "Point",
        "coordinates": [
          66.07572552728423,
          42.47925624733382
        ]
      }
    },
    {
      "type": "Feature",
      "properties": {
        "norad_id": 66890,
        "name": "STARLINK-35885",
        "group": "last-30-days",
        "lat": 43.574170612008714,
        "lon": 68.22439736745369,
        "alt_km": 347.7837940884483,
        "timestamp": "2025-12-22T22:44:19.652148+00:00",
        "meta_object_name": "STARLINK-35885",
        "meta_object_id": "2025-283N",
        "meta_epoch": "2025-12-22T20:00:01.999008",
        "meta_mean_motion": 15.7215278,
        "meta_eccentricity": 0.000122,
        "meta_inclination": 53.1586,
        "meta_ra_of_asc_node": 23.2806,
        "meta_arg_of_pericenter": 89.3564,
        "meta_mean_anomaly": 44.1745,
        "meta_ephemeris_type": 0,
        "meta_classification_type": "U",
        "meta_norad_cat_id": 66890,
        "meta_element_set_no": 999,
        "meta_rev_at_epoch": 405,
        "meta_bstar": -0.016501,
        "meta_mean_motion_dot": -0.01960652,
        "meta_mean_motion_ddot": 0,
        "tle_line1": "1 66890U 25283N   25356.83335647 -.01960652  00000+0 -16501-1 0  9993",
        "tle_line2": "2 66890  53.1586  23.2806 0001220  89.3564  44.1745 15.72152780  4052"
      },
      "geometry": {
        "type": "Point",
        "coordinates": [
          68.22439736745369,
          43.574170612008714
        ]
      }
    },
    {
      "type": "Feature",
      "properties": {
        "norad_id": 66891,
        "name": "STARLINK-35855",
        "group": "last-30-days",
        "lat": 44.63149553336538,
        "lon": 70.4587868410531,
        "alt_km": 347.58922422667547,
        "timestamp": "2025-12-22T22:44:19.652160+00:00",
        "meta_object_name": "STARLINK-35855",
        "meta_object_id": "2025-283P",
        "meta_epoch": "2025-12-22T20:00:01.999008",
        "meta_mean_motion": 15.72140814,
        "meta_eccentricity": 0.0001277,
        "meta_inclination": 53.1588,
        "meta_ra_of_asc_node": 23.2764,
        "meta_arg_of_pericenter": 87.8751,
        "meta_mean_anomaly": 47.5807,
        "meta_ephemeris_type": 0,
        "meta_classification_type": "U",
        "meta_norad_cat_id": 66891,
        "meta_element_set_no": 999,
        "meta_rev_at_epoch": 405,
        "meta_bstar": -0.016386,
        "meta_mean_motion_dot": -0.01947757,
        "meta_mean_motion_ddot": 0,
        "tle_line1": "1 66891U 25283P   25356.83335647 -.01947757  00000+0 -16386-1 0  9996",
        "tle_line2": "2 66891  53.1588  23.2764 0001277  87.8751  47.5807 15.72140814  4052"
      },
      "geometry": {
        "type": "Point",
        "coordinates": [
          70.4587868410531,
          44.63149553336538
        ]
      }
    }
  ]
}